NORAD_CAT_ID,OBJECT_NAME,OBJECT_TYPE,EPOCH,MEAN_MOTION,ECCENTRICITY,INCLINATION,RA_OF_ASC_NODE,ARG_OF_PERICENTER,MEAN_ANOMALY,BSTAR,MEAN_MOTION_DOT,MEAN_MOTION_DDOT,TLE_LINE0,TLE_LINE1,TLE_LINE2,SEMIMAJOR_AXIS,PERIOD,APOGEE,PERIGEE,DECAYED
47762,STARLINK-2180,PAYLOAD,2021-08-14 12:09:52,15.06390837,0.0001806,53.0566,155.3795,67.0183,293.0996,-6.3327e-05,-1.225e-05,0.0,0 STARLINK-2180,1 47762U 21017AS  21226.50686269 -.00001225  00000-0 -63327-4 0  9999,2 47762  53.0566 155.3795 0001806  67.0183 293.0996 15.06390837 26107,6925.377,95.593,548.492,545.991,0.0
47762,STARLINK-2180,PAYLOAD,2021-08-14 20:07:34,15.0639338,0.000181,53.0567,153.8903,67.1299,292.988,-6.1355e-05,-1.195e-05,0.0,0 STARLINK-2180,1 47762U 21017AS  21226.83859650 -.00001195  00000-0 -61355-4 0  9996,2 47762  53.0567 153.8903 0001810  67.1299 292.9880 15.06393380 26157,6925.369000000002,95.593,548.487,545.98,0.0
47762,STARLINK-2180,PAYLOAD,2021-08-15 04:05:16,15.06393972,0.000183,53.0566,152.4011,67.2717,292.8465,-4.8203e-05,-9.99e-06,0.0,0 STARLINK-2180,1 47762U 21017AS  21227.17033075 -.00000999  00000-0 -48203-4 0  9997,2 47762  53.0566 152.4011 0001830  67.2717 292.8465 15.06393972 25557,6925.3669999999975,95.593,548.499,545.965,0.0
47762,STARLINK-2180,PAYLOAD,2021-08-15 12:02:58,15.06394117,0.0001827,53.0566,150.9121,67.5997,292.5185,-5.0509e-05,-1.034e-05,0.0,0 STARLINK-2180,1 47762U 21017AS  21227.50206570 -.00001034  00000-0 -50509-4 0  9999,2 47762  53.0566 150.9121 0001827  67.5997 292.5185 15.06394117 26257,6925.3669999999975,95.593,548.497,545.966,0.0
47762,STARLINK-2180,PAYLOAD,2021-08-16 03:58:22,15.06390276,0.000184,53.0564,147.9335,68.14399999999999,291.9744,7.1708e-05,7.86e-06,0.0,0 STARLINK-2180,1 47762U 21017AS  21228.16553453  .00000786  00000-0  71708-4 0  9992,2 47762  53.0564 147.9335 0001840  68.1440 291.9744 15.06390276 26350,6925.378000000002,95.593,548.518,545.969,0.0
47762,STARLINK-2180,PAYLOAD,2021-08-16 11:56:04,15.0639189,0.000185,53.0565,146.4446,68.5699,291.5487,7.2839e-05,8.03e-06,0.0,0 STARLINK-2180,1 47762U 21017AS  21228.49726899  .00000803  00000-0  72839-4 0  9990,2 47762  53.0565 146.4446 0001850  68.5699 291.5487 15.06391890 25755,6925.373000000001,95.593,548.52,545.957,0.0
47762,STARLINK-2180,PAYLOAD,2021-08-16 18:18:13,15.06392874,0.0001879,53.0565,145.2531,69.3905,290.7285,6.1485e-05,6.34e-06,0.0,0 STARLINK-2180,1 47762U 21017AS  21228.76265705  .00000634  00000-0  61485-4 0  9991,2 47762  53.0565 145.2531 0001879  69.3905 290.7285 15.06392874 26444,6925.37,95.593,548.5369999999998,545.934,0.0
47762,STARLINK-2180,PAYLOAD,2021-08-17 11:49:09,15.06398134,0.0001919,53.0564,141.977,69.9527,290.1668,7.4439e-05,8.27e-06,0.0,0 STARLINK-2180,1 47762U 21017AS  21229.49246920  .00000827  00000-0  74439-4 0  9997,2 47762  53.0564 141.9770 0001919  69.9527 290.1668 15.06398134 26558,6925.354,95.592,548.548,545.89,0.0
47762,STARLINK-2180,PAYLOAD,2021-08-17 18:11:18,15.06398807,0.0001939,53.0563,140.7857,70.6763,289.4435,6.0385e-05,6.18e-06,0.0,0 STARLINK-2180,1 47762U 21017AS  21229.75785650  .00000618  00000-0  60385-4 0  9997,2 47762  53.0563 140.7857 0001939  70.6763 289.4435 15.06398807 25945,6925.352,95.592,548.56,545.874,0.0
47762,STARLINK-2180,PAYLOAD,2021-08-18 03:44:32,15.06402327,0.000196,53.0562,138.9985,71.7626,288.3576,7.2993e-05,8.06e-06,0.0,0 STARLINK-2180,1 47762U 21017AS  21230.15593412  .00000806  00000-0  72993-4 0  9993,2 47762  53.0562 138.9985 0001960  71.7626 288.3576 15.06402327 26655,6925.340999999999,95.592,548.564,545.849,0.0
47762,STARLINK-2180,PAYLOAD,2021-08-18 21:15:29,15.06399003,0.0001987,53.0562,135.722,74.0035,286.1173,4.1255e-06,-2.2e-06,0.0,0 STARLINK-2180,1 47762U 21017AS  21230.88575233 -.00000220  00000-0  41255-5 0  9993,2 47762  53.0562 135.7220 0001987  74.0035 286.1173 15.06399003 26117,6925.352,95.592,548.5930000000002,545.841,0.0
47762,STARLINK-2180,PAYLOAD,2021-08-19 13:10:53,15.06392865,0.0001983,53.0562,132.7441,72.9049,287.2157,-5.6819e-05,-1.128e-05,0.0,0 STARLINK-2180,1 47762U 21017AS  21231.54922756 -.00001128  00000-0 -56819-4 0  9993,2 47762  53.0562 132.7441 0001983  72.9049 287.2157 15.06392865 26862,6925.37,95.593,548.609,545.862,0.0
47762,STARLINK-2180,PAYLOAD,2021-08-19 17:57:30,15.06394938,0.0001989,53.0562,131.8507,73.4927,286.6281,-4.4506e-05,-9.44e-06,0.0,0 STARLINK-2180,1 47762U 21017AS  21231.74826685 -.00000944  00000-0 -44506-4 0  9994,2 47762  53.0562 131.8507 0001989  73.4927 286.6281 15.06394938 26248,6925.364000000001,95.592,548.607,545.852,0.0
47762,STARLINK-2180,PAYLOAD,2021-08-20 09:52:53,15.06397766,0.0001986,53.0561,128.8721,73.4584,286.6623,-2.8033e-05,-6.99e-06,0.0,0 STARLINK-2180,1 47762U 21017AS  21232.41173381 -.00000699  00000-0 -28033-4 0  9991,2 47762  53.0561 128.8721 0001986  73.4584 286.6623 15.06397766 26991,6925.355,95.592,548.596,545.845,0.0
47762,STARLINK-2180,PAYLOAD,2021-08-21 01:48:17,15.06393495,0.0002013,53.0563,125.8939,74.6496,285.4715,7.4538e-05,8.29e-06,0.0,0 STARLINK-2180,1 47762U 21017AS  21233.07520280  .00000829  00000-0  74538-4 0  9992,2 47762  53.0563 125.8939 0002013  74.6496 285.4715 15.06393495 26442,6925.368,95.593,548.628,545.839,0.0
47762,STARLINK-2180,PAYLOAD,2021-08-21 09:45:59,15.063962699999998,0.0002043,53.0563,124.4048,75.4194,284.7021,9.0086e-05,1.06e-05,0.0,0 STARLINK-2180,1 47762U 21017AS  21233.40693546  .00001060  00000-0  90086-4 0  9999,2 47762  53.0563 124.4048 0002043  75.4194 284.7021 15.06396270 27149,6925.36,95.592,548.64,545.81,0.0
47762,STARLINK-2180,PAYLOAD,2021-08-21 17:43:41,15.06397778,0.0002043,53.0561,122.9155,76.0054,284.1163,7.7239e-05,8.69e-06,0.0,0 STARLINK-2180,1 47762U 21017AS  21233.73866937  .00000869  00000-0  77239-4 0  9992,2 47762  53.0561 122.9155 0002043  76.0054 284.1163 15.06397778 27191,6925.355,95.592,548.635,545.806,0.0
47762,STARLINK-2180,PAYLOAD,2021-08-22 01:41:22,15.06401003,0.0002067,53.0563,121.4264,76.5721,283.5498,9.0569e-05,1.068e-05,0.0,0 STARLINK-2180,1 47762U 21017AS  21234.07040086  .00001068  00000-0  90569-4 0  9992,2 47762  53.0563 121.4264 0002067  76.5721 283.5498 15.06401003 26594,6925.345,95.592,548.6419999999998,545.779,0.0
47762,STARLINK-2180,PAYLOAD,2021-08-22 09:39:04,15.06402968,0.0002076,53.0564,119.9375,78.2964,281.8258,8.888e-05,1.042e-05,0.0,0 STARLINK-2180,1 47762U 21017AS  21234.40213291  .00001042  00000-0  88880-4 0  9994,2 47762  53.0564 119.9375 0002076  78.2964 281.8258 15.06402968 27292,6925.339,95.592,548.6419999999998,545.7669999999998,0.0
47762,STARLINK-2180,PAYLOAD,2021-08-22 22:23:22,15.06406328,0.0002096,53.0563,117.5546,79.5074,280.6151,8.484200000000001e-05,9.82e-06,0.0,0 STARLINK-2180,1 47762U 21017AS  21234.93290311  .00000982  00000-0  84842-4 0  9996,2 47762  53.0563 117.5546 0002096  79.5074 280.6151 15.06406328 27375,6925.329000000002,95.592,548.646,545.743,0.0
47762,STARLINK-2180,PAYLOAD,2021-08-23 09:32:10,15.0639155,0.0002147,53.0562,115.4699,80.6068,279.5164,-6.8255e-05,-1.298e-05,0.0,0 STARLINK-2180,1 47762U 21017AS  21235.39734434 -.00001298  00000-0 -68255-4 0  9999,2 47762  53.0562 115.4699 0002147  80.6068 279.5164 15.06391550 26799,6925.374,95.593,548.726,545.753,0.0
47762,STARLINK-2180,PAYLOAD,2021-08-23 22:16:29,15.06392238,0.0002034,53.0555,113.0862,83.9882,276.1338,-8.2477e-05,-1.51e-05,0.0,0 STARLINK-2180,1 47762U 21017AS  21235.92811948 -.00001510  00000-0 -82477-4 0  9993,2 47762  53.0555 113.0862 0002034  83.9882 276.1338 15.06392238 27524,6925.371999999999,95.593,548.646,545.8290000000002,0.0
47762,STARLINK-2180,PAYLOAD,2021-08-24 09:25:16,15.06393493,0.000202,53.0561,111.0021,83.0203,277.1016,-7.0057e-05,-1.325e-05,0.0,0 STARLINK-2180,1 47762U 21017AS  21236.39254770 -.00001325  00000-0 -70057-4 0  9994,2 47762  53.0561 111.0021 0002020  83.0203 277.1016 15.06393493 27594,6925.369000000002,95.593,548.632,545.835,0.0
47762,STARLINK-2180,PAYLOAD,2021-08-24 22:09:35,15.063935999999998,0.0002018,53.0562,108.6193,84.6944,275.4275,-6.3446e-05,-1.226e-05,0.0,0 STARLINK-2180,1 47762U 21017AS  21236.92332309 -.00001226  00000-0 -63446-4 0  9992,2 47762  53.0562 108.6193 0002018  84.6944 275.4275 15.06393600 27670,6925.368,95.593,548.631,545.836,0.0
47762,STARLINK-2180,PAYLOAD,2021-08-25 01:20:39,15.06393518,0.0002017,53.0563,108.0237,84.8484,275.2735,-5.9861e-05,-1.173e-05,0.0,0 STARLINK-2180,1 47762U 21017AS  21237.05601722 -.00001173  00000-0 -59861-4 0  9992,2 47762  53.0563 108.0237 0002017  84.8484 275.2735 15.06393518 27042,6925.368,95.593,548.63,545.837,0.0
47762,STARLINK-2180,PAYLOAD,2021-08-25 22:02:40,15.06390276,0.0001989,53.0564,104.1519,86.0011,274.1205,8.0481e-05,9.17e-06,0.0,0 STARLINK-2180,1 47762U 21017AS  21237.91852909  .00000917  00000-0  80481-4 0  9997,2 47762  53.0564 104.1519 0001989  86.0011 274.1205 15.06390276 27824,6925.378000000002,95.593,548.621,545.866,0.0
47762,STARLINK-2180,PAYLOAD,2021-08-26 07:35:55,15.06392352,0.0001994,53.0563,102.365,86.3906,273.7311,9.1426e-05,1.0800000000000003e-05,0.0,0 STARLINK-2180,1 47762U 21017AS  21238.31661070  .00001080  00000-0  91426-4 0  9992,2 47762  53.0563 102.3650 0001994  86.3906 273.7311 15.06392352 27887,6925.371999999999,95.593,548.618,545.856,0.0
47762,STARLINK-2180,PAYLOAD,2021-08-27 07:29:00,15.06398743,0.0002023,53.0563,97.8975,87.8178,272.3043,9.5307e-05,1.138e-05,0.0,0 STARLINK-2180,1 47762U 21017AS  21239.31181143  .00001138  00000-0  95307-4 0  9997,2 47762  53.0563  97.8975 0002023  87.8178 272.3043 15.06398743 28031,6925.352,95.592,548.618,545.816,0.0
47762,STARLINK-2180,PAYLOAD,2021-08-27 18:37:46,15.06402296,0.0002032,53.0562,95.8126,88.5068,271.6154,8.552100000000001e-05,9.92e-06,0.0,0 STARLINK-2180,1 47762U 21017AS  21239.77623692  .00000992  00000-0  85521-4 0  9991,2 47762  53.0562  95.8126 0002032  88.5068 271.6154 15.06402296 28104,6925.342,95.592,548.614,545.799,0.0
